STARLINK-11484 [DTC]    
1 62277U 24237L   25358.80565331  .00325036  00000+0  24087-2 0  9997
2 62277  42.9992 148.1015 0002493 278.3412  81.7172 15.71136165 61274
STARLINK-11487 [DTC]    
1 62278U 24237M   25358.70502968  .00248124  00000+0  18696-2 0  9995
2 62278  42.9994 149.0822 0001689 263.5871  96.4804 15.70972857 61252
STARLINK-11499 [DTC]    
1 62279U 24237N   25358.78014282  .00270448  00000+0  20410-2 0  9992
2 62279  43.0009 148.7923 0002373 276.0659  83.9938 15.70866164 61199
STARLINK-33548          
1 62280U 24237P   25358.79733767  .00021087  00000+0  77350-3 0  9990
2 62280  43.0004 268.4562 0001287 266.3592  93.7113 15.27585469 59869
STARLINK-33544          
1 62281U 24237Q   25358.19727921  .00037215  00000+0  13537-2 0  9996
2 62281  43.0008 282.9398 0001291 262.4092  97.6613 15.27613115 59643
STARLINK-33560          
1 62282U 24237R   25358.83315582  .00034571  00000+0  12586-2 0  9999
2 62282  42.9953 279.1101 0000766  53.4976 306.5946 15.27613990 59659
STARLINK-33547          
1 62283U 24237S   25358.46654644  .00009214  00000+0  34388-3 0  9995
2 62283  43.0013 270.2695 0001179 264.8418  95.2300 15.27584964 59819
STARLINK-33563          
1 62284U 24237T   25358.51264757  .00033116  00000+0  12073-2 0  9998
2 62284  43.0008 281.0014 0000795 321.9495  38.1300 15.27586166 59690
STARLINK-33550          
1 62285U 24237U   25358.82929254  .00033449  00000+0  12179-2 0  9999
2 62285  42.9998 279.0782 0001009 252.4328 107.6413 15.27624278 59748
STARLINK-33564          
1 62286U 24237V   25358.84342813  .00018543  00000+0  68154-3 0  9995
2 62286  43.0026 279.1863 0001311 259.7281 100.3423 15.27586841 59742
STARLINK-33546          
1 62287U 24237W   25358.50879624  .00030108  00000+0  10992-2 0  9991
2 62287  43.0010 280.9704 0000379  10.2648 349.8212 15.27578916 59605
STARLINK-33565          
1 62288U 24237X   25358.76393284  .00031914  00000+0  11636-2 0  9995
2 62288  42.9986 268.2039 0000922 273.7242  86.3504 15.27597583 59862
STARLINK-33549          
1 62289U 24237Y   25358.84730094  .00061586  00000+0  22248-2 0  9998
2 62289  43.0025 279.2160 0001442 265.3708  94.6979 15.27640964 59745
STARLINK-32648          
1 62301U 24239A   25358.85461696  .00022287  00000+0  76207-3 0  9995
2 62301  53.1583 168.9330 0000652 122.5205 237.5858 15.30211221 58109
STARLINK-32594          
1 62302U 24239B   25358.90834026  .00032822  00000+0  11156-2 0  9990
2 62302  53.1597 179.0561 0000956  74.3973 285.7133 15.30194551 57967
STARLINK-32621          
1 62303U 24239C   25358.75448157  .00025960  00000+0  88552-3 0  9990
2 62303  53.1591 169.0165 0001333  82.7010 277.4143 15.30200949 58099
