[{"OBJECT_NAME":"STARLINK-11484 [DTC]","OBJECT_ID":"2024-237L","EPOCH":"2025-12-24T19:20:08.445984","MEAN_MOTION":15.71136165,"ECCENTRICITY":0.00024936,"INCLINATION":42.9992,"RA_OF_ASC_NODE":148.1015,"ARG_OF_PERICENTER":278.3412,"MEAN_ANOMALY":81.7172,"EPHEMERIS_TYPE":0,"CLASSIFICATION_TYPE":"U","NORAD_CAT_ID":62277,"ELEMENT_SET_NO":999,"REV_AT_EPOCH":6127,"BSTAR":0.0024086774,"MEAN_MOTION_DOT":0.00325036,"MEAN_MOTION_DDOT":0},{"OBJECT_NAME":"STARLINK-11487 [DTC]","OBJECT_ID":"2024-237M","EPOCH":"2025-12-24T16:55:14.564352","MEAN_MOTION":15.70972857,"ECCENTRICITY":0.00016895,"INCLINATION":42.9994,"RA_OF_ASC_NODE":149.0822,"ARG_OF_PERICENTER":263.5871,"MEAN_ANOMALY":96.4804,"EPHEMERIS_TYPE":0,"CLASSIFICATION_TYPE":"U","NORAD_CAT_ID":62278,"ELEMENT_SET_NO":999,"REV_AT_EPOCH":6125,"BSTAR":0.0018695783,"MEAN_MOTION_DOT":0.00248124,"MEAN_MOTION_DDOT":0},{"OBJECT_NAME":"STARLINK-11499 [DTC]","OBJECT_ID":"2024-237N","EPOCH":"2025-12-24T18:43:24.339648","MEAN_MOTION":15.70866164,"ECCENTRICITY":0.00023735,"INCLINATION":43.0009,"RA_OF_ASC_NODE":148.7923,"ARG_OF_PERICENTER":276.0659,"MEAN_ANOMALY":83.9938,"EPHEMERIS_TYPE":0,"CLASSIFICATION_TYPE":"U","NORAD_CAT_ID":62279,"ELEMENT_SET_NO":999,"REV_AT_EPOCH":6119,"BSTAR":0.0020410401,"MEAN_MOTION_DOT":0.00270448,"MEAN_MOTION_DDOT":0},{"OBJECT_NAME":"STARLINK-33548","OBJECT_ID":"2024-237P","EPOCH":"2025-12-24T19:08:09.974688","MEAN_MOTION":15.27585469,"ECCENTRICITY":0.00012876,"INCLINATION":43.0004,"RA_OF_ASC_NODE":268.4562,"ARG_OF_PERICENTER":266.3592,"MEAN_ANOMALY":93.7113,"EPHEMERIS_TYPE":0,"CLASSIFICATION_TYPE":"U","NORAD_CAT_ID":62280,"ELEMENT_SET_NO":999,"REV_AT_EPOCH":5986,"BSTAR":0.00077350324,"MEAN_MOTION_DOT":0.00021087,"MEAN_MOTION_DDOT":0},{"OBJECT_NAME":"STARLINK-33544","OBJECT_ID":"2024-237Q","EPOCH":"2025-12-24T04:44:04.923744","MEAN_MOTION":15.27613115,"ECCENTRICITY":0.00012919,"INCLINATION":43.0008,"RA_OF_ASC_NODE":282.9398,"ARG_OF_PERICENTER":262.4092,"MEAN_ANOMALY":97.6613,"EPHEMERIS_TYPE":0,"CLASSIFICATION_TYPE":"U","NORAD_CAT_ID":62281,"ELEMENT_SET_NO":999,"REV_AT_EPOCH":5964,"BSTAR":0.0013537079,"MEAN_MOTION_DOT":0.00037215,"MEAN_MOTION_DDOT":0},{"OBJECT_NAME":"STARLINK-33560","OBJECT_ID":"2024-237R","EPOCH":"2025-12-24T19:59:44.662848","MEAN_MOTION":15.2761399,"ECCENTRICITY":7.661e-5,"INCLINATION":42.9953,"RA_OF_ASC_NODE":279.1101,"ARG_OF_PERICENTER":53.4976,"MEAN_ANOMALY":306.5946,"EPHEMERIS_TYPE":0,"CLASSIFICATION_TYPE":"U","NORAD_CAT_ID":62282,"ELEMENT_SET_NO":999,"REV_AT_EPOCH":5965,"BSTAR":0.0012586183,"MEAN_MOTION_DOT":0.00034571,"MEAN_MOTION_DDOT":0},{"OBJECT_NAME":"STARLINK-33547","OBJECT_ID":"2024-237S","EPOCH":"2025-12-24T11:11:49.612416","MEAN_MOTION":15.27584964,"ECCENTRICITY":0.00011793,"INCLINATION":43.0013,"RA_OF_ASC_NODE":270.2695,"ARG_OF_PERICENTER":264.8418,"MEAN_ANOMALY":95.23,"EPHEMERIS_TYPE":0,"CLASSIFICATION_TYPE":"U","NORAD_CAT_ID":62283,"ELEMENT_SET_NO":999,"REV_AT_EPOCH":5981,"BSTAR":0.00034387775,"MEAN_MOTION_DOT":9.214e-5,"MEAN_MOTION_DDOT":0},{"OBJECT_NAME":"STARLINK-33563","OBJECT_ID":"2024-237T","EPOCH":"2025-12-24T12:18:12.750048","MEAN_MOTION":15.27586166,"ECCENTRICITY":7.959e-5,"INCLINATION":43.0008,"RA_OF_ASC_NODE":281.0014,"ARG_OF_PERICENTER":321.9495,"MEAN_ANOMALY":38.13,"EPHEMERIS_TYPE":0,"CLASSIFICATION_TYPE":"U","NORAD_CAT_ID":62284,"ELEMENT_SET_NO":999,"REV_AT_EPOCH":5969,"BSTAR":0.0012073227,"MEAN_MOTION_DOT":0.00033116,"MEAN_MOTION_DDOT":0},{"OBJECT_NAME":"STARLINK-33550","OBJECT_ID":"2024-237U","EPOCH":"2025-12-24T19:54:10.875456","MEAN_MOTION":15.27624278,"ECCENTRICITY":0.00010096,"INCLINATION":42.9998,"RA_OF_ASC_NODE":279.0782,"ARG_OF_PERICENTER":252.4328,"MEAN_ANOMALY":107.6413,"EPHEMERIS_TYPE":0,"CLASSIFICATION_TYPE":"U","NORAD_CAT_ID":62285,"ELEMENT_SET_NO":999,"REV_AT_EPOCH":5974,"BSTAR":0.0012179019,"MEAN_MOTION_DOT":0.00033449,"MEAN_MOTION_DDOT":0},{"OBJECT_NAME":"STARLINK-33564","OBJECT_ID":"2024-237V","EPOCH":"2025-12-24T20:14:32.190432","MEAN_MOTION":15.27586841,"ECCENTRICITY":0.00013111,"INCLINATION":43.0026,"RA_OF_ASC_NODE":279.1863,"ARG_OF_PERICENTER":259.7281,"MEAN_ANOMALY":100.3423,"EPHEMERIS_TYPE":0,"CLASSIFICATION_TYPE":"U","NORAD_CAT_ID":62286,"ELEMENT_SET_NO":999,"REV_AT_EPOCH":5974,"BSTAR":0.00068154156,"MEAN_MOTION_DOT":0.00018543,"MEAN_MOTION_DDOT":0},{"OBJECT_NAME":"STARLINK-33546","OBJECT_ID":"2024-237W","EPOCH":"2025-12-24T12:12:39.995136","MEAN_MOTION":15.27578916,"ECCENTRICITY":3.793e-5,"INCLINATION":43.001,"RA_OF_ASC_NODE":280.9704,"ARG_OF_PERICENTER":10.2648,"MEAN_ANOMALY":349.8212,"EPHEMERIS_TYPE":0,"CLASSIFICATION_TYPE":"U","NORAD_CAT_ID":62287,"ELEMENT_SET_NO":999,"REV_AT_EPOCH":5960,"BSTAR":0.0010992056,"MEAN_MOTION_DOT":0.00030108,"MEAN_MOTION_DDOT":0},{"OBJECT_NAME":"STARLINK-33565","OBJECT_ID":"2024-237X","EPOCH":"2025-12-24T18:20:03.797376","MEAN_MOTION":15.27597583,"ECCENTRICITY":9.227e-5,"INCLINATION":42.9986,"RA_OF_ASC_NODE":268.2039,"ARG_OF_PERICENTER":273.7242,"MEAN_ANOMALY":86.3504,"EPHEMERIS_TYPE":0,"CLASSIFICATION_TYPE":"U","NORAD_CAT_ID":62288,"ELEMENT_SET_NO":999,"REV_AT_EPOCH":5986,"BSTAR":0.0011636326,"MEAN_MOTION_DOT":0.00031914,"MEAN_MOTION_DDOT":0},{"OBJECT_NAME":"STARLINK-33549","OBJECT_ID":"2024-237Y","EPOCH":"2025-12-24T20:20:06.801216","MEAN_MOTION":15.27640964,"ECCENTRICITY":0.00014427,"INCLINATION":43.0025,"RA_OF_ASC_NODE":279.216,"ARG_OF_PERICENTER":265.3708,"MEAN_ANOMALY":94.6979,"EPHEMERIS_TYPE":0,"CLASSIFICATION_TYPE":"U","NORAD_CAT_ID":62289,"ELEMENT_SET_NO":999,"REV_AT_EPOCH":5974,"BSTAR":0.00222478,"MEAN_MOTION_DOT":0.00061586,"MEAN_MOTION_DDOT":0},{"OBJECT_NAME":"STARLINK-32648","OBJECT_ID":"2024-239A","EPOCH":"2025-12-24T20:30:38.905344","MEAN_MOTION":15.30211221,"ECCENTRICITY":6.526e-5,"INCLINATION":53.1583,"RA_OF_ASC_NODE":168.933,"ARG_OF_PERICENTER":122.5205,"MEAN_ANOMALY":237.5858,"EPHEMERIS_TYPE":0,"CLASSIFICATION_TYPE":"U","NORAD_CAT_ID":62301,"ELEMENT_SET_NO":999,"REV_AT_EPOCH":5810,"BSTAR":0.00076207346,"MEAN_MOTION_DOT":0.00022287,"MEAN_MOTION_DDOT":0},{"OBJECT_NAME":"STARLINK-32594","OBJECT_ID":"2024-239B","EPOCH":"2025-12-24T21:48:00.598464","MEAN_MOTION":15.30194551,"ECCENTRICITY":9.569e-5,"INCLINATION":53.1597,"RA_OF_ASC_NODE":179.0561,"ARG_OF_PERICENTER":74.3973,"MEAN_ANOMALY":285.7133,"EPHEMERIS_TYPE":0,"CLASSIFICATION_TYPE":"U","NORAD_CAT_ID":62302,"ELEMENT_SET_NO":999,"REV_AT_EPOCH":5796,"BSTAR":0.0011156136,"MEAN_MOTION_DOT":0.00032822,"MEAN_MOTION_DDOT":0},{"OBJECT_NAME":"STARLINK-32621","OBJECT_ID":"2024-239C","EPOCH":"2025-12-24T18:06:27.207648","MEAN_MOTION":15.30200949,"ECCENTRICITY":0.00013339,"INCLINATION":53.1591,"RA_OF_ASC_NODE":169.0165,"ARG_OF_PERICENTER":82.701,"MEAN_ANOMALY":277.4143,"EPHEMERIS_TYPE":0,"CLASSIFICATION_TYPE":"U","NORAD_CAT_ID":62303,"ELEMENT_SET_NO":999,"REV_AT_EPOCH":5809,"BSTAR":0.00088552127,"MEAN_MOTION_DOT":0.0002596,"MEAN_MOTION_DDOT":0}]
